GLOBALSTAR M063         
1 26081U 00008A   25039.84518491 -.00000133  00000+0 -73857-3 0  9995
2 26081  51.9954  89.5782 0004939  73.4915  97.9037 11.86166265142346
GLOBALSTAR M060         
1 26083U 00008C   25039.78677584  .00000109  00000+0  19887-2 0  9992
2 26083  52.0026  55.2090 0003246 219.4972 311.7154 12.17654321136729
GLOBALSTAR M065         
1 31571U 07020A   25039.93083902 -.00000029  00000+0  41698-3 0  9991
2 31571  51.9872 256.6401 0010917  28.2677  78.8558 12.61991622817517
GLOBALSTAR M069         
1 31573U 07020C   25039.78201382 -.00000069  00000+0  20693-3 0  9996
2 31573  51.9921 219.9728 0001987  73.7735 299.1212 12.47307660818204
GLOBALSTAR M071         
1 31576U 07020F   25039.81737524 -.00000087  00000+0  40413-4 0  9998
2 31576  52.0031 230.5373 0001104 130.3972 334.9169 12.18248733479294
